#cP2023  6 21  0  0  0.00000000      96 ORBIT IGS20 HLM  IGS
## 2267 259200.00000000   900.00000000 60116 0.0000000000000
+   32   G01G02G03G04G05G06G07G08G09G10G11G12G13G14G15G16G17
+        G18G19G20G21G22G23G24G25G26G27G28G29G30G31G32  0  0
+          0  0  0  0  0  0  0  0  0  0  0  0  0  0  0  0  0
+          0  0  0  0  0  0  0  0  0  0  0  0  0  0  0  0  0
+          0  0  0  0  0  0  0  0  0  0  0  0  0  0  0  0  0
++         2  2  3  2  2  2  2  2  2  3  2  2  2  2  2  2  2
++         2  2  2  2  2  3  2  2  2  2  2  2  2  2  2  0  0
++         0  0  0  0  0  0  0  0  0  0  0  0  0  0  0  0  0
++         0  0  0  0  0  0  0  0  0  0  0  0  0  0  0  0  0
++         0  0  0  0  0  0  0  0  0  0  0  0  0  0  0  0  0
%c G  cc GPS ccc cccc cccc cccc cccc ccccc ccccc ccccc ccccc
%c cc cc ccc ccc cccc cccc cccc cccc ccccc ccccc ccccc ccccc
%f  1.2500000  1.025000000  0.00000000000  0.000000000000000
%f  0.0000000  0.000000000  0.00000000000  0.000000000000000
%i    0    0    0    0      0      0      0      0         0
%i    0    0    0    0      0      0      0      0         0
/* RAPID ORBIT COMBINATION FROM WEIGHTED AVERAGE OF:        
/* cod emr esa gfz grg jpl ngs sio usn whu                  
/* REFERENCED TO IGS TIME (IGST) AND TO WEIGHTED MEAN POLE: 
/* PCV:IGS20_2233 OL/AL:FES2014b NONE     Y  ORB:CMB CLK:CMB
*  2023  6 21 11 15  0.00000000
PG01  14278.404594 -21529.651108   4966.100711    177.069658  6  6  4  80       
PG02  15613.332204 -18070.670209  11968.490237   -583.714307  6  6  4  88       
PG03  16320.432269 -12633.147924 -16785.800955   -262.480831  5  7  7  91       
PG04   6147.858163 -16234.564053 -20057.155943     74.292769  6  4  4  98       
PG05 -26042.309832   4951.384135   2290.966959   -131.950193  7  4  5 113       
PG06  -9440.390187 -12638.507781 -21291.149808    583.792962  5  5  4 106       
PG07   3996.455901 -24367.081918   9567.545232    146.425965  4  3  3  92       
PG08  14827.065905  -5192.575260  21386.944328   -128.438262  5  5  6  92       
PG09  -3457.819751 -22060.514679 -14421.285020   -130.635015  7  2  3  96       
PG10  14985.568806  11519.529179  18964.922823    -42.069221  9 10 12 113       
PG11 -17216.456766   2810.990296 -20009.569938   -244.288050  8  5  8  95       
PG12 -19641.266400  10441.107327 -14729.012740   -391.288772  8     7 100       
PG13 -17169.301452  -3926.672785  19765.539515    536.946429  4  5  7  88       
PG14 -11551.518043 -13580.746262  19749.891291     97.712425  4  5  3  80       
PG15 -13946.343906   7672.430611  20825.920961     50.877209  7  6  6  73       
PG16  26779.226119    927.854008  -1124.062427   -489.218439  6  2  5  62       
PG17 -13574.424705 -22760.132748    265.648270    719.030705  5  4  5  85       
PG18  -2656.813228  23533.834456  11855.592794   -316.165664  5  4  6  82       
PG19 -16846.826839 -19127.281684  -8244.085219    333.526751  7  5  7  96       
PG20 -25314.293622    848.348935  -7630.380848    426.822464  8  3  4 105       
PG21  16336.976378 -14966.448725  14507.237973    152.913467  6  6  2  86       
PG22  17796.730353  16768.845197 -10106.935211    501.252458  9  7  6  96       
PG23   1450.318343  14846.199623  21978.395905     35.312341  6  8 10  82       
PG24 -14697.669532  19506.312335   9542.882128   -232.311833  6  6  6 102       
PG25  -7080.665361  15431.237718 -20676.900797    451.230284  6  3  2  86       
PG26  22996.361744   5787.264204 -12419.422827    238.530337  5  4  3  66       
PG27  19183.851415   7085.538102  16914.597656     12.143318  6  3     95       
PG28   9189.193863  14501.488713 -20287.855583     83.554812  6  6  7  83       
PG29     25.240076  21278.959551 -15890.007959   -603.476171  7  3  4  87       
PG30  -4073.028682 -20129.305366  16813.916378   -509.598411  4  3  3  90       
PG31  15798.090200   2399.546486 -21440.606300   -218.604759  4  5  1  80       
PG32  16470.805058  20860.521460  -2007.949659   -505.002743  5  5  7  78       
*  2023  6 21 11 30  0.00000000
PG01  14136.044558 -20743.619496   7774.265296    177.067598  6  6  4  89       
PG02  15330.302323 -16654.126981  14278.016167   -583.710961  6  7  4  88       
PG03  18108.195295 -12693.300364 -14758.302858   -262.468273  5  7  7  91       
PG04   7557.535915 -14347.703002 -21001.542222     74.302227  7  4  4  78       
PG05 -26195.203879   4743.070471   -567.575604   -131.951704  7  5  5 102       
PG06  -8413.074861 -14794.527665 -20304.648639    583.790808  5  5  5  97       
PG07   4623.777867 -25076.631876   6922.075774    146.416535  3  3  4  86       
PG08  16287.462027  -3262.655014  20732.711620   -128.439499  5  5  6  95       
PG09  -2229.907099 -20791.358865 -16424.036782   -130.626993  7  3  3  89       
PG10  12811.408174  11850.132497  20292.480200    -42.070735  9  9 11 112       
PG11 -16253.006215    669.793381 -20981.390029   -244.301809  8  5  8 102       
PG12 -21165.874331  10322.594693 -12480.170168   -391.293372  9     7 105       
PG13 -18137.863828  -5914.644950  18388.013308    536.950727  5  5  7  90       
PG14  -9254.975713 -13868.386942  20722.142459     97.723536  4  5  3  73       
PG15 -15625.314451   5884.569285  20243.826504     50.880497  6  6  6  92       
PG16  26532.168418   1140.007700  -3943.104892   -489.215045  6  2  5  70       
PG17 -13305.616602 -22757.680095   3145.490267    719.031556  4  5  5  72       
PG18  -3344.071959  24556.480849   9325.633825   -316.179033  4  4  5  89       
PG19 -17072.157588 -19869.590187  -5526.073402    333.531258  7  5  6  84       
PG20 -24400.725465    293.393784 -10217.263091    426.820488  8  3  3 112       
PG21  15996.176841 -13264.039147  16555.748159    152.913154  6  7  2  95       
PG22  18163.803028  17789.326099  -7502.640303    501.257865  9  8  6 101       
PG23  -1025.452905  15182.969007  21757.491305     35.315725  5  7  9  81       
PG24 -14597.598049  18172.480424  11973.067177   -232.323505  6  6  6  91       
PG25  -9327.347276  15607.764948 -19584.938119    451.232542  6  3  3  94       
PG26  21543.105695   6294.721006 -14577.987981    238.529503  5  4  4  83       
PG27  20178.239230   8653.595477  14980.772702     12.136597  6  3  1  95       
PG28   8268.712065  16555.196030 -19074.860984     83.555150  6  6  6  83       
PG29  -1115.431838  19733.961479 -17750.863728   -603.477062  7  4  4 102       
PG30  -3127.544726 -21694.358680  14928.672295   -509.596125  4  3  3  86       
PG31  14794.623151   4616.781348 -21756.075859   -218.605406  4  5  2  69       
PG32  16329.081429  21076.223019    833.387990   -505.010186  5  5  7  80       
*  2023  6 21 11 45  0.00000000
PG01  13926.227569 -19654.648648  10444.265703    177.065555  5  7  4  81       
PG02  15057.355627 -14992.136945  16347.375303   -583.708202  6  7  4  83       
PG03  19651.201096 -12808.907566 -12477.581920   -262.455667  4  7  7  83       
PG04   9116.576916 -12469.756302 -21583.481028     74.311623  7  4  3  83       
PG05 -26044.133912   4474.144629  -3416.441531   -131.953259  7  5  5 102       
PG06  -7554.784202 -16881.330341 -18966.151160    583.788719  5  5  5  96       
PG07   5113.679211 -25528.561560   4155.647206    146.407373  3  2  5  97       
PG08  17781.232255  -1484.728270  19721.970524   -128.443068  5  4  6  92       
PG09   -800.354761 -19429.254607 -18145.088451   -130.618966  6  3  2  96       
PG10  10529.608814  12325.048443  21278.773485    -42.072778  9  9 11 102       
PG11 -15369.111632  -1601.495806 -21591.715834   -244.315583  7  5  8  89       
PG12 -22432.709826  10255.913278 -10018.758576   -391.297789  9     7 101       
PG13 -19117.548670  -7697.406085  16691.785332    536.955334  5  5  7  87       
PG14  -6885.718758 -14284.399161  21339.291978     97.734652  3  5  4  78       
PG15 -17318.104216   4238.482056  19300.557883     50.883748  5  6  6  97       
PG16  25986.918517   1390.134803  -6696.452772   -489.211294  4  3  5  72       
PG17 -12847.881848 -22508.217702   5971.165214    719.032515  3  5  4  78       
PG18  -3869.022995  25337.420307   6633.713054   -316.192432  5  4  5  99       
PG19 -17163.544358 -20342.237356  -2715.211798    333.535716  5  4  6  94       
PG20 -23248.770907   -401.173637 -12626.206343    426.818557  6  2  4 106       
PG21  15686.711850 -11347.556065  18319.682366    152.912567  6  7  3  83       
PG22  18410.407068  18537.677532  -4768.407339    501.263233  9  8  5  86       
PG23  -3435.480002  15644.335957  21161.837353     35.319134  5  6  8  93       
PG24 -14490.939604  16577.227016  14188.704896   -232.335160  6  6  6  92       
PG25 -11427.315240  15873.119847 -18162.119208    451.234822  6  3  3  98       
PG26  19894.597190   6927.090739 -16491.305123    238.528642  5  5  4  90       
PG27  21103.016181   9984.004423  12789.672651     12.129839  7  4  2  97       
PG28   7504.799975  18506.117279 -17534.222416     83.555476  5  7  6  86       
PG29  -2450.846637  18096.820738 -19306.469954   -603.478004  6  4  4  99       
PG30  -2336.075757 -23091.373610  12785.352140   -509.593967  4  4  3  90       
PG31  13900.057263   6900.400307 -21703.516370   -218.606024  4  6  2  85       
PG32  15992.618559  21055.477504   3660.584876   -505.017655  5  5  7  96       
EOF
